[{"OBJECT_NAME":"HERMES-2","OBJECT_ID":"2025-052AK","EPOCH":"2026-03-09T22:17:00.130272","MEAN_MOTION":15.28021069,"ECCENTRICITY":0.00063399,"INCLINATION":97.4004,"RA_OF_ASC_NODE":324.4926,"ARG_OF_PERICENTER":99.416,"MEAN_ANOMALY":260.7796,"EPHEMERIS_TYPE":0,"CLASSIFICATION_TYPE":"U","NORAD_CAT_ID":63243,"ELEMENT_SET_NO":999,"REV_AT_EPOCH":5485,"BSTAR":0.00034839454,"MEAN_MOTION_DOT":9.456e-5,"MEAN_MOTION_DDOT":0},{"OBJECT_NAME":"STARLINK-34084","OBJECT_ID":"2025-099U","EPOCH":"2026-03-09T07:31:00.876576","MEAN_MOTION":15.27590814,"ECCENTRICITY":5.596e-5,"INCLINATION":42.9963,"RA_OF_ASC_NODE":177.9147,"ARG_OF_PERICENTER":254.2506,"MEAN_ANOMALY":105.8284,"EPHEMERIS_TYPE":0,"CLASSIFICATION_TYPE":"U","NORAD_CAT_ID":63970,"ELEMENT_SET_NO":999,"REV_AT_EPOCH":4728,"BSTAR":0.0015426738,"MEAN_MOTION_DOT":0.00042448,"MEAN_MOTION_DDOT":0}]
